[{"OBJECT_NAME":"TRANSPORTER-12 OBJECT F","OBJECT_ID":"2025-009F","EPOCH":"2026-03-09T18:25:14.947104","MEAN_MOTION":15.73813521,"ECCENTRICITY":0.00060767,"INCLINATION":97.386,"RA_OF_ASC_NODE":159.0379,"ARG_OF_PERICENTER":265.786,"MEAN_ANOMALY":94.271,"EPHEMERIS_TYPE":0,"CLASSIFICATION_TYPE":"U","NORAD_CAT_ID":62614,"ELEMENT_SET_NO":999,"REV_AT_EPOCH":6425,"BSTAR":0.0022214492,"MEAN_MOTION_DOT":0.00324599,"MEAN_MOTION_DDOT":0},{"OBJECT_NAME":"STARLINK-36407","OBJECT_ID":"2026-018Z","EPOCH":"2026-03-09T19:58:33.214368","MEAN_MOTION":15.75229518,"ECCENTRICITY":0.00012124,"INCLINATION":97.2842,"RA_OF_ASC_NODE":134.7037,"ARG_OF_PERICENTER":87.8186,"MEAN_ANOMALY":272.3218,"EPHEMERIS_TYPE":0,"CLASSIFICATION_TYPE":"U","NORAD_CAT_ID":67612,"ELEMENT_SET_NO":999,"REV_AT_EPOCH":738,"BSTAR":0.0019762923,"MEAN_MOTION_DOT":0.00305984,"MEAN_MOTION_DDOT":0}]
